[{"OBJECT_NAME":"ONEWEB-0320","OBJECT_ID":"2021-083E","EPOCH":"2026-05-19T06:04:39.923904","MEAN_MOTION":13.18686414,"ECCENTRICITY":0.0001772,"INCLINATION":87.9165,"RA_OF_ASC_NODE":341.2228,"ARG_OF_PERICENTER":86.4429,"MEAN_ANOMALY":273.6905,"EPHEMERIS_TYPE":0,"CLASSIFICATION_TYPE":"U","NORAD_CAT_ID":49190,"ELEMENT_SET_NO":999,"REV_AT_EPOCH":22616,"BSTAR":-6.9418e-05,"MEAN_MOTION_DOT":-1.4e-07,"MEAN_MOTION_DDOT":0.0},{"OBJECT_NAME":"ONEWEB-0321","OBJECT_ID":"2021-083F","EPOCH":"2026-05-19T02:39:01.028448","MEAN_MOTION":13.20770142,"ECCENTRICITY":0.0001627,"INCLINATION":87.9166,"RA_OF_ASC_NODE":280.2333,"ARG_OF_PERICENTER":93.9037,"MEAN_ANOMALY":266.2282,"EPHEMERIS_TYPE":0,"CLASSIFICATION_TYPE":"U","NORAD_CAT_ID":49191,"ELEMENT_SET_NO":999,"REV_AT_EPOCH":23299,"BSTAR":0.00013481000000000002,"MEAN_MOTION_DOT":6.8e-07,"MEAN_MOTION_DDOT":0.0},{"OBJECT_NAME":"ONEWEB-0322","OBJECT_ID":"2021-083G","EPOCH":"2026-05-19T04:59:23.372160","MEAN_MOTION":13.1347076,"ECCENTRICITY":0.0001664,"INCLINATION":87.8936,"RA_OF_ASC_NODE":326.0108,"ARG_OF_PERICENTER":75.6525,"MEAN_ANOMALY":284.4788,"EPHEMERIS_TYPE":0,"CLASSIFICATION_TYPE":"U","NORAD_CAT_ID":49192,"ELEMENT_SET_NO":999,"REV_AT_EPOCH":22711,"BSTAR":0.00065478,"MEAN_MOTION_DOT":2.52e-06,"MEAN_MOTION_DDOT":0.0},{"OBJECT_NAME":"ONEWEB-0324","OBJECT_ID":"2021-083H","EPOCH":"2026-05-19T01:47:17.473920","MEAN_MOTION":13.18685158,"ECCENTRICITY":0.0001694,"INCLINATION":87.9176,"RA_OF_ASC_NODE":341.2423,"ARG_OF_PERICENTER":91.2915,"MEAN_ANOMALY":268.8412,"EPHEMERIS_TYPE":0,"CLASSIFICATION_TYPE":"U","NORAD_CAT_ID":49193,"ELEMENT_SET_NO":999,"REV_AT_EPOCH":22616,"BSTAR":0.00012792,"MEAN_MOTION_DOT":6.3e-07,"MEAN_MOTION_DDOT":0.0},{"OBJECT_NAME":"ONEWEB-0325","OBJECT_ID":"2021-083J","EPOCH":"2026-05-19T01:52:08.269536","MEAN_MOTION":13.18684839,"ECCENTRICITY":0.0001871,"INCLINATION":87.9167,"RA_OF_ASC_NODE":341.253,"ARG_OF_PERICENTER":85.8913,"MEAN_ANOMALY":274.2433,"EPHEMERIS_TYPE":0,"CLASSIFICATION_TYPE":"U","NORAD_CAT_ID":49194,"ELEMENT_SET_NO":999,"REV_AT_EPOCH":22617,"BSTAR":5.232e-05,"MEAN_MOTION_DOT":3.4e-07,"MEAN_MOTION_DDOT":0.0},{"OBJECT_NAME":"ONEWEB-0326","OBJECT_ID":"2021-083K","EPOCH":"2026-05-19T02:14:11.514048","MEAN_MOTION":13.18684969,"ECCENTRICITY":0.0002088,"INCLINATION":87.9177,"RA_OF_ASC_NODE":341.2452,"ARG_OF_PERICENTER":89.106,"MEAN_ANOMALY":271.0311,"EPHEMERIS_TYPE":0,"CLASSIFICATION_TYPE":"U","NORAD_CAT_ID":49195,"ELEMENT_SET_NO":999,"REV_AT_EPOCH":22616,"BSTAR":-2.2303000000000003e-05,"MEAN_MOTION_DOT":4e-08,"MEAN_MOTION_DDOT":0.0},{"OBJECT_NAME":"ONEWEB-0327","OBJECT_ID":"2021-083L","EPOCH":"2026-05-19T02:13:47.494848","MEAN_MOTION":13.18685794,"ECCENTRICITY":0.0002232,"INCLINATION":87.9168,"RA_OF_ASC_NODE":341.2521,"ARG_OF_PERICENTER":87.9548,"MEAN_ANOMALY":272.1839,"EPHEMERIS_TYPE":0,"CLASSIFICATION_TYPE":"U","NORAD_CAT_ID":49196,"ELEMENT_SET_NO":999,"REV_AT_EPOCH":22618,"BSTAR":2.3402e-05,"MEAN_MOTION_DOT":2.2e-07,"MEAN_MOTION_DDOT":0.0},{"OBJECT_NAME":"ONEWEB-0328","OBJECT_ID":"2021-083M","EPOCH":"2026-05-19T06:34:27.447456","MEAN_MOTION":13.1347174,"ECCENTRICITY":0.0001704,"INCLINATION":87.8951,"RA_OF_ASC_NODE":325.9678,"ARG_OF_PERICENTER":94.2059,"MEAN_ANOMALY":265.9265,"EPHEMERIS_TYPE":0,"CLASSIFICATION_TYPE":"U","NORAD_CAT_ID":49197,"ELEMENT_SET_NO":999,"REV_AT_EPOCH":22710,"BSTAR":0.0007076200000000001,"MEAN_MOTION_DOT":2.71e-06,"MEAN_MOTION_DDOT":0.0},{"OBJECT_NAME":"ONEWEB-0331","OBJECT_ID":"2021-083N","EPOCH":"2026-05-19T02:04:16.686336","MEAN_MOTION":13.18685205,"ECCENTRICITY":0.0002103,"INCLINATION":87.9176,"RA_OF_ASC_NODE":341.24,"ARG_OF_PERICENTER":96.4798,"MEAN_ANOMALY":263.6573,"EPHEMERIS_TYPE":0,"CLASSIFICATION_TYPE":"U","NORAD_CAT_ID":49198,"ELEMENT_SET_NO":999,"REV_AT_EPOCH":22617,"BSTAR":3.2954e-05,"MEAN_MOTION_DOT":2.6e-07,"MEAN_MOTION_DDOT":0.0},{"OBJECT_NAME":"ONEWEB-0333","OBJECT_ID":"2021-083P","EPOCH":"2026-05-19T06:27:07.679232","MEAN_MOTION":13.13472027,"ECCENTRICITY":0.0001826,"INCLINATION":87.8941,"RA_OF_ASC_NODE":325.9977,"ARG_OF_PERICENTER":89.3114,"MEAN_ANOMALY":270.8225,"EPHEMERIS_TYPE":0,"CLASSIFICATION_TYPE":"U","NORAD_CAT_ID":49199,"ELEMENT_SET_NO":999,"REV_AT_EPOCH":22711,"BSTAR":0.00065485,"MEAN_MOTION_DOT":2.52e-06,"MEAN_MOTION_DDOT":0.0},{"OBJECT_NAME":"ONEWEB-0334","OBJECT_ID":"2021-083Q","EPOCH":"2026-05-18T16:09:55.456992","MEAN_MOTION":13.20765988,"ECCENTRICITY":0.0001412,"INCLINATION":87.9178,"RA_OF_ASC_NODE":280.3333,"ARG_OF_PERICENTER":66.4106,"MEAN_ANOMALY":293.7176,"EPHEMERIS_TYPE":0,"CLASSIFICATION_TYPE":"U","NORAD_CAT_ID":49200,"ELEMENT_SET_NO":999,"REV_AT_EPOCH":23289,"BSTAR":0.0010184999999999999,"MEAN_MOTION_DOT":4.27e-06,"MEAN_MOTION_DDOT":0.0},{"OBJECT_NAME":"ONEWEB-0335","OBJECT_ID":"2021-083R","EPOCH":"2026-05-19T06:19:50.346624","MEAN_MOTION":13.13469259,"ECCENTRICITY":0.0001936,"INCLINATION":87.8943,"RA_OF_ASC_NODE":325.9954,"ARG_OF_PERICENTER":94.1286,"MEAN_ANOMALY":266.0064,"EPHEMERIS_TYPE":0,"CLASSIFICATION_TYPE":"U","NORAD_CAT_ID":49201,"ELEMENT_SET_NO":999,"REV_AT_EPOCH":22712,"BSTAR":0.00040855000000000004,"MEAN_MOTION_DOT":1.62e-06,"MEAN_MOTION_DDOT":0.0},{"OBJECT_NAME":"ONEWEB-0336","OBJECT_ID":"2021-083S","EPOCH":"2026-05-19T05:38:23.138592","MEAN_MOTION":13.1347112,"ECCENTRICITY":0.0002009,"INCLINATION":87.8944,"RA_OF_ASC_NODE":325.9972,"ARG_OF_PERICENTER":101.0978,"MEAN_ANOMALY":259.0377,"EPHEMERIS_TYPE":0,"CLASSIFICATION_TYPE":"U","NORAD_CAT_ID":49202,"ELEMENT_SET_NO":999,"REV_AT_EPOCH":22711,"BSTAR":-0.0010025000000000001,"MEAN_MOTION_DOT":-3.53e-06,"MEAN_MOTION_DDOT":0.0},{"OBJECT_NAME":"ONEWEB-0337","OBJECT_ID":"2021-083T","EPOCH":"2026-05-19T05:52:49.127520","MEAN_MOTION":13.13471864,"ECCENTRICITY":0.0001758,"INCLINATION":87.8938,"RA_OF_ASC_NODE":326.0016,"ARG_OF_PERICENTER":97.2583,"MEAN_ANOMALY":262.8746,"EPHEMERIS_TYPE":0,"CLASSIFICATION_TYPE":"U","NORAD_CAT_ID":49203,"ELEMENT_SET_NO":999,"REV_AT_EPOCH":22711,"BSTAR":-0.00079857,"MEAN_MOTION_DOT":-2.79e-06,"MEAN_MOTION_DDOT":0.0},{"OBJECT_NAME":"ONEWEB-0338","OBJECT_ID":"2021-083U","EPOCH":"2026-05-19T07:54:09.952704","MEAN_MOTION":13.20774513,"ECCENTRICITY":0.0001698,"INCLINATION":87.9153,"RA_OF_ASC_NODE":280.2056,"ARG_OF_PERICENTER":89.2401,"MEAN_ANOMALY":270.8927,"EPHEMERIS_TYPE":0,"CLASSIFICATION_TYPE":"U","NORAD_CAT_ID":49204,"ELEMENT_SET_NO":999,"REV_AT_EPOCH":23300,"BSTAR":-0.0009081,"MEAN_MOTION_DOT":-3.56e-06,"MEAN_MOTION_DDOT":0.0},{"OBJECT_NAME":"ONEWEB-0339","OBJECT_ID":"2021-083V","EPOCH":"2026-05-19T06:05:11.831424","MEAN_MOTION":13.1347175,"ECCENTRICITY":0.0001556,"INCLINATION":87.894,"RA_OF_ASC_NODE":325.9918,"ARG_OF_PERICENTER":84.3264,"MEAN_ANOMALY":275.8042,"EPHEMERIS_TYPE":0,"CLASSIFICATION_TYPE":"U","NORAD_CAT_ID":49205,"ELEMENT_SET_NO":999,"REV_AT_EPOCH":22709,"BSTAR":-0.00041734,"MEAN_MOTION_DOT":-1.4e-06,"MEAN_MOTION_DDOT":0.0}]