ONEWEB-0320             
1 49190U 21083E   26139.25323986 -.00000014  00000+0 -69418-4 0  9994
2 49190  87.9165 341.2228 0001772  86.4429 273.6905 13.18686414226164
ONEWEB-0321             
1 49191U 21083F   26139.11042857  .00000068  00000+0  13481-3 0  9990
2 49191  87.9166 280.2333 0001627  93.9037 266.2282 13.20770142232991
ONEWEB-0322             
1 49192U 21083G   26139.20790940  .00000252  00000+0  65478-3 0  9992
2 49192  87.8936 326.0108 0001664  75.6525 284.4788 13.13470760227111
ONEWEB-0324             
1 49193U 21083H   26139.07450780  .00000063  00000+0  12792-3 0  9994
2 49193  87.9176 341.2423 0001694  91.2915 268.8412 13.18685158226166
ONEWEB-0325             
1 49194U 21083J   26139.07787349  .00000034  00000+0  52320-4 0  9999
2 49194  87.9167 341.2530 0001871  85.8913 274.2433 13.18684839226170
ONEWEB-0326             
1 49195U 21083K   26139.09318882  .00000004  00000+0 -22303-4 0  9990
2 49195  87.9177 341.2452 0002088  89.1060 271.0311 13.18684969226169
ONEWEB-0327             
1 49196U 21083L   26139.09291082  .00000022  00000+0  23402-4 0  9993
2 49196  87.9168 341.2521 0002232  87.9548 272.1839 13.18685794226181
ONEWEB-0328             
1 49197U 21083M   26139.27392879  .00000271  00000+0  70762-3 0  9996
2 49197  87.8951 325.9678 0001704  94.2059 265.9265 13.13471740227109
ONEWEB-0331             
1 49198U 21083N   26139.08630424  .00000026  00000+0  32954-4 0  9997
2 49198  87.9176 341.2400 0002103  96.4798 263.6573 13.18685205226173
ONEWEB-0333             
1 49199U 21083P   26139.26883888  .00000252  00000+0  65485-3 0  9997
2 49199  87.8941 325.9977 0001826  89.3114 270.8225 13.13472027227115
ONEWEB-0334             
1 49200U 21083Q   26138.67355853  .00000427  00000+0  10185-2 0  9990
2 49200  87.9178 280.3333 0001412  66.4106 293.7176 13.20765988232898
ONEWEB-0335             
1 49201U 21083R   26139.26377716  .00000162  00000+0  40855-3 0  9993
2 49201  87.8943 325.9954 0001936  94.1286 266.0064 13.13469259227124
ONEWEB-0336             
1 49202U 21083S   26139.23499003 -.00000353  00000+0 -10025-2 0  9994
2 49202  87.8944 325.9972 0002009 101.0978 259.0377 13.13471120227112
ONEWEB-0337             
1 49203U 21083T   26139.24501305 -.00000279  00000+0 -79857-3 0  9991
2 49203  87.8938 326.0016 0001758  97.2583 262.8746 13.13471864227112
ONEWEB-0338             
1 49204U 21083U   26139.32928186 -.00000356  00000+0 -90810-3 0  9999
2 49204  87.9153 280.2056 0001698  89.2401 270.8927 13.20774513233001
ONEWEB-0339             
1 49205U 21083V   26139.25360916 -.00000140  00000+0 -41734-3 0  9995
2 49205  87.8940 325.9918 0001556  84.3264 275.8042 13.13471750227099
